NORAD_CAT_ID,OBJECT_NAME,OBJECT_TYPE,EPOCH,MEAN_MOTION,ECCENTRICITY,INCLINATION,RA_OF_ASC_NODE,ARG_OF_PERICENTER,MEAN_ANOMALY,BSTAR,MEAN_MOTION_DOT,MEAN_MOTION_DDOT,TLE_LINE0,TLE_LINE1,TLE_LINE2,SEMIMAJOR_AXIS,PERIOD,APOGEE,PERIGEE,DECAYED
51108.0,STARLINK-3362,PAYLOAD,2023-08-12 15:08:37,15.08842496,0.0001109,53.2165,189.207,83.0583,277.0535,0.00010874,1.443e-05,0.0,0 STARLINK-3362,1 51108U 22005E   23224.63098981  .00001443  00000-0  10874-3 0  9996,2 51108  53.2165 189.2070 0001109  83.0583 277.0535 15.08842496 88062,6917.873,95.437,540.505,538.971,0.0
51108.0,STARLINK-3362,PAYLOAD,2023-08-13 00:40:55,15.08848373,9.23e-05,53.216,187.4235,82.3596,277.7501,0.00012119,1.642e-05,0.0,0 STARLINK-3362,1 51108U 22005E   23225.02842519  .00001642  00000-0  12119-3 0  9999,2 51108  53.2160 187.4235 0000923  82.3596 277.7501 15.08848373 88126,6917.855,95.437,540.358,539.081,0.0
51108.0,STARLINK-3362,PAYLOAD,2023-08-13 07:02:28,15.0885882,0.0001189,53.2149,186.2339,79.7927,280.3199,0.0001001,1.306e-05,0.0,0 STARLINK-3362,1 51108U 22005E   23225.29338171  .00001306  00000-0  10010-3 0  9997,2 51108  53.2149 186.2339 0001189  79.7927 280.3199 15.08858820 88163,6917.823,95.436,540.51,538.865,0.0
51108.0,STARLINK-3362,PAYLOAD,2023-08-14 03:42:29,15.08841454,0.0001256,53.2152,182.3684,88.0563,272.0573,0.00014811,2.07e-05,0.0,0 STARLINK-3362,1 51108U 22005E   23226.15451109  .00002070  00000-0  14811-3 0  9992,2 51108  53.2152 182.3684 0001256  88.0563 272.0573 15.08841454 88294,6917.876,95.437,540.61,538.872,0.0
51108.0,STARLINK-3362,PAYLOAD,2023-08-14 06:53:15,15.08845324,0.0001314,53.2153,181.7736,88.0958,272.0185,0.00014471,2.016e-05,0.0,0 STARLINK-3362,1 51108U 22005E   23226.28698921  .00002016  00000-0  14471-3 0  9993,2 51108  53.2153 181.7736 0001314  88.0958 272.0185 15.08845324 88311,6917.864,95.437,540.638,538.82,0.0
51108.0,STARLINK-3362,PAYLOAD,2023-08-15 01:57:53,15.08842239,0.0001412,53.2155,178.2054,91.1506,268.9647,4.7095e-05,4.62e-06,0.0,0 STARLINK-3362,1 51108U 22005E   23227.08187130  .00000462  00000-0  47095-4 0  9999,2 51108  53.2155 178.2054 0001412  91.1506 268.9647 15.08842239 88432,6917.874,95.437,540.715,538.762,0.0
51108.0,STARLINK-3362,PAYLOAD,2023-08-15 03:33:16,15.08844757,0.0001384,53.2159,177.9084,89.0387,271.0764,7.1065e-05,8.43e-06,0.0,0 STARLINK-3362,1 51108U 22005E   23227.14811006  .00000843  00000-0  71065-4 0  9999,2 51108  53.2159 177.9084 0001384  89.0387 271.0764 15.08844757 88449,6917.866,95.437,540.688,538.773,0.0
51108.0,STARLINK-3362,PAYLOAD,2023-08-16 03:24:03,15.08846243,0.0001407,53.2163,173.4492,90.8311,269.2842,0.00017687,2.529e-05,0.0,0 STARLINK-3362,1 51108U 22005E   23228.14171042  .00002529  00000-0  17687-3 0  9991,2 51108  53.2163 173.4492 0001407  90.8311 269.2842 15.08846243 88595,6917.861,95.437,540.7,538.753,0.0
51108.0,STARLINK-3362,PAYLOAD,2023-08-16 06:34:49,15.0885003,0.0001395,53.2158,172.8526,91.9462,268.169,0.00024122,3.554e-05,0.0,0 STARLINK-3362,1 51108U 22005E   23228.27418760  .00003554  00000-0  24122-3 0  9997,2 51108  53.2158 172.8526 0001395  91.9462 268.1690 15.08850030 88616,6917.85,95.437,540.68,538.75,0.0
51108.0,STARLINK-3362,PAYLOAD,2023-08-16 20:53:18,15.08840742,0.0001502,53.2176,170.1796,97.9885,262.1278,3.5444e-05,2.76e-06,0.0,0 STARLINK-3362,1 51108U 22005E   23228.87035242  .00000276  00000-0  35444-4 0  9991,2 51108  53.2176 170.1796 0001502  97.9885 262.1278 15.08840742 88706,6917.878,95.438,540.782,538.704,0.0
51108.0,STARLINK-3362,PAYLOAD,2023-08-17 04:50:13,15.08844967,0.0001408,53.2169,168.6903,95.806,264.3093,7.8856e-05,9.67e-06,0.0,0 STARLINK-3362,1 51108U 22005E   23229.20154971  .00000967  00000-0  78856-4 0  9991,2 51108  53.2169 168.6903 0001408  95.8060 264.3093 15.08844967 88754,6917.865,95.437,540.704,538.756,0.0
51108.0,STARLINK-3362,PAYLOAD,2023-08-18 03:05:38,15.08840497,0.0001536,53.2167,164.5279,88.2194,271.8974,0.00014375,2.001e-05,0.0,0 STARLINK-3362,1 51108U 22005E   23230.12891413  .00002001  00000-0  14375-3 0  9999,2 51108  53.2167 164.5279 0001536  88.2194 271.8974 15.08840497 88899,6917.879,95.438,540.806,538.681,0.0
51108.0,STARLINK-3362,PAYLOAD,2023-08-18 06:16:24,15.0884368,0.0001503,53.2162,163.9321,90.9652,269.1512,0.00015596,2.195e-05,0.0,0 STARLINK-3362,1 51108U 22005E   23230.26139192  .00002195  00000-0  15596-3 0  9993,2 51108  53.2162 163.9321 0001503  90.9652 269.1512 15.08843680 88916,6917.869,95.437,540.774,538.694,0.0
51108.0,STARLINK-3362,PAYLOAD,2023-08-19 01:21:02,15.08838164,0.0001105,53.2172,160.3611,77.0765,283.035,-2.4546e-07,-2.92e-06,0.0,0 STARLINK-3362,1 51108U 22005E   23231.05627323 -.00000292  00000-0 -24546-6 0  9995,2 51108  53.2172 160.3611 0001105  77.0765 283.0350 15.08838164 89039,6917.886,95.438,540.515,538.987,0.0
51108.0,STARLINK-3362,PAYLOAD,2023-08-19 04:31:48,15.088417,0.0001059,53.216,159.7669,92.7447,267.3666,7.0986e-05,8.42e-06,0.0,0 STARLINK-3362,1 51108U 22005E   23231.18875232  .00000842  00000-0  70986-4 0  9999,2 51108  53.2160 159.7669 0001059  92.7447 267.3666 15.08841700 89057,6917.875,95.437,540.473,539.008,0.0
51108.0,STARLINK-3362,PAYLOAD,2023-08-19 12:28:44,15.08835593,0.0001456,53.217,158.2822,84.3606,275.7552,6.75e-05,7.86e-06,0.0,0 STARLINK-3362,1 51108U 22005E   23231.51995875  .00000786  00000-0  67500-4 0  9997,2 51108  53.2170 158.2822 0001456  84.3606 275.7552 15.08835593 89104,6917.894,95.438,540.766,538.752,0.0
51108.0,STARLINK-3362,PAYLOAD,2023-08-20 02:47:12,15.08838559,0.0001403,53.2167,155.6054,90.2617,269.8536,3.2176e-05,2.24e-06,0.0,0 STARLINK-3362,1 51108U 22005E   23232.11611909  .00000224  00000-0  32176-4 0  9995,2 51108  53.2167 155.6054 0001403  90.2617 269.8536 15.08838559 89198,6917.885,95.438,540.72,538.779,0.0
51108.0,STARLINK-3362,PAYLOAD,2023-08-20 04:22:35,15.08839107,0.0001416,53.2168,155.3076,90.6562,269.4592,5.0999e-05,5.24e-06,0.0,0 STARLINK-3362,1 51108U 22005E   23232.18235909  .00000524  00000-0  50999-4 0  9990,2 51108  53.2168 155.3076 0001416  90.6562 269.4592 15.08839107 89207,6917.883,95.438,540.728,538.769,0.0
51108.0,STARLINK-3362,PAYLOAD,2023-08-21 04:13:22,15.08849762,0.0001454,53.2162,150.8473,92.5628,267.553,0.00024928,3.683e-05,0.0,0 STARLINK-3362,1 51108U 22005E   23233.17595632  .00003683  00000-0  24928-3 0  9993,2 51108  53.2162 150.8473 0001454  92.5628 267.5530 15.08849762 89353,6917.851,95.437,540.721,538.71,0.0
51108.0,STARLINK-3362,PAYLOAD,2023-08-22 00:53:23,15.08844219,0.0001468,53.2169,146.9818,93.601,266.515,0.00011675,1.571e-05,0.0,0 STARLINK-3362,1 51108U 22005E   23234.03707818  .00001571  00000-0  11675-3 0  9999,2 51108  53.2169 146.9818 0001468  93.6010 266.5150 15.08844219 89484,6917.867,95.437,540.748,538.717,0.0
51108.0,STARLINK-3362,PAYLOAD,2023-08-23 00:44:11,15.08840479,0.0001486,53.2177,142.5225,89.1656,270.9507,-2.6652e-05,-7.12e-06,0.0,0 STARLINK-3362,1 51108U 22005E   23235.03068487 -.00000712  00000-0 -26652-4 0  9992,2 51108  53.2177 142.5225 0001486  89.1656 270.9507 15.08840479 89639,6917.879,95.438,540.772,538.716,0.0
51108.0,STARLINK-3362,PAYLOAD,2023-08-23 03:54:57,15.08847708,0.0001494,53.2174,141.9256,79.0742,281.0418,-0.00010579,-1.972e-05,0.0,0 STARLINK-3362,1 51108U 22005E   23235.16316215 -.00001972  00000-0 -10579-3 0  9990,2 51108  53.2174 141.9256 0001494  79.0742 281.0418 15.08847708 89654,6917.857,95.437,540.755,538.688,0.0
51108.0,STARLINK-3362,PAYLOAD,2023-08-24 03:45:43,15.08844944,0.0001324,53.2176,137.4655,88.7696,271.3448,0.0001148,1.54e-05,0.0,0 STARLINK-3362,1 51108U 22005E   23236.15675919  .00001540  00000-0  11480-3 0  9990,2 51108  53.2176 137.4655 0001324  88.7696 271.3448 15.08844944 88705,6917.865,95.437,540.646,538.814,0.0
51108.0,STARLINK-3362,PAYLOAD,2023-08-25 02:01:08,15.0883111,0.0001392,53.2182,133.302,84.3886,275.7265,0.00016326,2.311e-05,0.0,0 STARLINK-3362,1 51108U 22005E   23237.08412903  .00002311  00000-0  16326-3 0  9996,2 51108  53.2182 133.3020 0001392  84.3886 275.7265 15.08831110 89944,6917.908,95.438,540.736,538.81,0.0
51108.0,STARLINK-3362,PAYLOAD,2023-08-25 21:05:46,15.08841228,0.0001276,53.2179,129.7338,83.5664,276.5473,3.9595e-05,3.42e-06,0.0,0 STARLINK-3362,1 51108U 22005E   23237.87900668  .00000342  00000-0  39595-4 0  9999,2 51108  53.2179 129.7338 0001276  83.5664 276.5473 15.08841228 88969,6917.877,95.437,540.624,538.859,0.0
51108.0,STARLINK-3362,PAYLOAD,2023-08-26 01:51:55,15.0884567,0.0001342,53.2178,128.8419,82.8821,277.2324,7.8392e-05,9.6e-06,0.0,0 STARLINK-3362,1 51108U 22005E   23238.07772252  .00000960  00000-0  78392-4 0  9992,2 51108  53.2178 128.8419 0001342  82.8821 277.2324 15.08845670 90094,6917.863,95.437,540.656,538.8,0.0
51108.0,STARLINK-3362,PAYLOAD,2023-08-26 20:56:33,15.08837324,0.0001544,53.2181,125.2752,76.8758,283.2407,7.3003e-05,8.74e-06,0.0,0 STARLINK-3362,1 51108U 22005E   23238.87260965  .00000874  00000-0  73003-4 0  9991,2 51108  53.2181 125.2752 0001544  76.8758 283.2407 15.08837324 89112,6917.889,95.438,540.822,538.685,0.0
51108.0,STARLINK-3362,PAYLOAD,2023-08-27 03:18:05,15.08840303,0.0001392,53.2173,124.0851,76.7602,283.3546,8.2551e-05,1.026e-05,0.0,0 STARLINK-3362,1 51108U 22005E   23239.13756747  .00001026  00000-0  82551-4 0  9997,2 51108  53.2173 124.0851 0001392  76.7602 283.3546 15.08840303 90251,6917.879,95.438,540.707,538.781,0.0
51108.0,STARLINK-3362,PAYLOAD,2023-08-27 20:47:20,15.08841038,0.0001431,53.2172,120.8136,79.8265,280.2889,3.0758e-05,2.02e-06,0.0,0 STARLINK-3362,1 51108U 22005E   23239.86620886  .00000202  00000-0  30758-4 0  9998,2 51108  53.2172 120.8136 0001431  79.8265 280.2889 15.08841038 89264,6917.877,95.437,540.732,538.752,0.0
51108.0,STARLINK-3362,PAYLOAD,2023-08-27 22:22:43,15.08841616,0.0001452,53.2173,120.5162,78.9854,281.1302,3.4193e-05,2.56e-06,0.0,0 STARLINK-3362,1 51108U 22005E   23239.93244837  .00000256  00000-0  34193-4 0  9990,2 51108  53.2173 120.5162 0001452  78.9854 281.1302 15.08841616 90374,6917.875,95.437,540.745,538.736,0.0
